VDNH-80                 
1 44392U 19038G   21297.43340816  .00002568  00000-0  14379-3 0  9991
2 44392  97.6026 261.6956 0019508 224.4228 253.7857 15.14202887127102
D-STAR ONE (LIGHTSAT)   
1 44393U 19038H   21297.48334400  .00001894  00000-0  10728-3 0  9994
2 44393  97.6051 261.6150 0019821 224.7172 135.2462 15.14112429127306
AMGU-1 (AMURSAT)        
1 44394U 19038J   21297.56492567  .00002282  00000-0  12845-3 0  9997
2 44394  97.6037 261.6366 0019850 224.9862 134.9762 15.14124258127313
DOT-1                   
1 44399U 19038P   21297.47530312  .00001454  00000-0  85664-4 0  9993
2 44399  97.6075 260.8671 0022793 229.7266 130.1973 15.13026367127246
SOKRAT                  
1 44404U 19038U   21297.40076736  .00002315  00000-0  13084-3 0  9991
2 44404  97.6041 261.2108 0020006 227.0910 132.8642 15.13959148127275
LUCKY-7                 
1 44406U 19038W   21297.47212139  .00001553  00000-0  90471-4 0  9998
2 44406  97.6067 261.1216 0022726 221.7666 138.1831 15.13331615127254
D-STAR ONE (EXOCONNECT) 
1 44410U 19038AA  21297.55285767  .00003026  00000-0  16511-3 0  9998
2 44410  97.6009 261.7596 0019505 223.1726 136.7977 15.14984528127338
NARSSCUBE-2             
1 44415U 19022E   21297.38258291  .00001230  00000-0  51597-4 0  9998
2 44415  51.6411 177.2963 0010410 287.9394  72.0452 15.31626025123907
KRAKSAT                 
1 44427U 98067QM  21297.41532819  .00064127  00000-0  36889-3 0  9992
2 44427  51.6427   0.7293 0005474  13.9253  77.0441 15.78090854131759
NARSSCUBE-1             
1 44792U 98067QX  21297.46302566  .00102116  00000-0  51154-3 0  9999
2 44792  51.6351  10.8895 0006636  18.6217 341.5026 15.80945041109857
DUCHIFAT-3              
1 44854U 19089C   21297.43511158  .00001196  00000-0  10139-3 0  9995
2 44854  36.9654  57.7514 0006946  95.6994 264.4549 14.99717752102476
OPS-SAT                 
1 44878U 19092F   21297.49890782  .00001929  00000-0  10085-3 0  9998
2 44878  97.4770 119.1808 0015083  82.5392 277.7555 15.16977488102390
FLORIPASAT-1            
1 44885U 19093G   21297.48326103  .00000591  00000-0  80305-4 0  9994
2 44885  97.9182  15.6384 0013462 238.0834 121.9068 14.82425605 99886
HUSKYSAT-1 (HO-107)     
1 45119U 19071J   21297.53870087  .00005366  00000-0  15622-3 0  9996
2 45119  51.6397 130.4936 0010874  40.2030 319.9756 15.37017611 97017
G-SAT                   
1 45597U 98067RK  21297.55598441  .00029498  00000-0  32187-3 0  9998
2 45597  51.6395  39.4492 0003017  65.1384 294.9924 15.63109011 84761
QUETZAL-1               
1 45598U 98067RL  21297.55310772  .00044250  00000-0  40500-3 0  9999
2 45598  51.6385  35.6639 0001761   7.5515 352.5507 15.67338076 84747
BY70-2                  
1 45857U 20042B   21297.54682994  .00002006  00000-0  28862-3 0  9992
2 45857  97.9764  11.9341 0012106 152.8900 207.2931 14.77437054 70606
SALSAT                  
1 46495U 20068K   21297.57187905  .00001577  00000-0  11952-3 0  9998
2 46495  97.6993 234.3596 0016932 359.9418   0.1799 15.03616915 58731
NETSAT-4                
1 46504U 20068U   21297.59257526  .00000149  00000-0  15883-4 0  9990
2 46504  97.6964 233.4333 0014586  40.4268 319.8037 15.02273421 58620
NETSAT-3                
1 46505U 20068V   21297.53569802  .00000301  00000-0  27385-4 0  9998
2 46505  97.7003 233.3336 0014527  53.4257 306.8299 15.02259491 58622
NETSAT-1                
1 46506U 20068W   21297.54522636  .00000651  00000-0  53953-4 0  9992
2 46506  97.7007 233.2990 0012727  68.4944 291.7640 15.02235828 58621
NETSAT-2                
1 46507U 20068X   21297.55104075  .00000775  00000-0  63384-4 0  9993
2 46507  97.6997 233.2987 0011605  77.6647 282.5888 15.02212526 58577
BY70-3                  
1 46839U 20079N   21297.45376421  .00005226  00000-0  15680-3 0  9999
2 46839  97.2293   8.7569 0008681 102.2095 313.9552 15.34854023 53989
SPOC                    
1 46921U 98067RR  21297.56476035  .00017820  00000-0  24022-3 0  9990
2 46921  51.6415  50.7946 0001236 228.1997 131.8890 15.57893263 54960
BOBCAT-1                
1 46922U 98067RS  21297.56641012  .00031125  00000-0  35892-3 0  9991
2 46922  51.6426  47.0876 0001496 279.5255  80.5569 15.61655905 54977
NEUTRON-1               
1 46923U 98067RT  21297.52686382  .00018977  00000-0  25665-3 0  9994
2 46923  51.6419  51.2883 0001428 246.2625 113.8218 15.57757903 54979
1998-067RU              
1 46924U 98067RU  21297.53646088  .00089358  00000-0  64885-3 0  9993
2 46924  51.6352  38.5361 0005170 326.2105  33.8564 15.72615610 55123
DESCENT                 
1 46927U 98067RX  21297.33895682  .00018969  00000-0  25617-3 0  9990
2 46927  51.6421  52.2791 0001923 263.2450  96.8323 15.57797485 54864
UVSQ-SAT                
1 47438U 21006AB  21297.12238380  .00001571  00000-0  91202-4 0  9995
2 47438  97.4728 355.9677 0013022  20.9316 339.2446 15.13511373 41518
SOMP2B                  
1 47445U 21006AJ  21297.41548475  .00001352  00000-0  79386-4 0  9990
2 47445  97.4699 356.0884 0012720  23.8293 336.3525 15.13333073 41554
WARP-01                 
1 47924U 98067SA  21297.52745488  .00026067  00000-0  36766-3 0  9992
2 47924  51.6416  57.2643 0004224 243.3145 116.7415 15.56406929 34865
RSP-01                  
1 47925U 98067SB  21297.57253637  .00019313  00000-0  28586-3 0  9995
2 47925  51.6423  57.5782 0001008 164.1829 195.9194 15.55296642 34846
TAUSAT-1                
1 47926U 98067SC  21297.53407432  .00025734  00000-0  35823-3 0  9992
2 47926  51.6409  56.5620 0001531 165.5939 194.5097 15.56775878 34840
TSURU                   
1 47927U 98067SD  21297.53831867  .00017769  00000-0  26878-3 0  9995
2 47927  51.6425  58.0993 0001206 156.9093 203.1952 15.54764082 34832
STARS-EC                
1 47928U 98067SE  21297.53423946  .00028203  00000-0  39484-3 0  9993
2 47928  51.6419  57.3136 0004891 246.7561 113.2916 15.56559310 34826
MAYA-2                  
1 47929U 98067SF  21297.53425690  .00017545  00000-0  26534-3 0  9991
2 47929  51.6424  58.0709 0001272 151.4257 208.6803 15.54780193 34794
HIROGARI (OPUSAT-II)    
1 47930U 98067SG  21297.54141572  .00030581  00000-0  41700-3 0  9995
2 47930  51.6417  56.6233 0000371 166.0277 194.0725 15.57234687 34850
GUARANISAT-1            
1 47931U 98067SH  21297.53189760  .00017604  00000-0  26590-3 0  9997
2 47931  51.6427  58.0589 0001269 151.9204 208.1856 15.54811360 34838
DIY-1 (ARDUIQUBE)       
1 47963U 21022AH  21297.52296179  .00003569  00000-0  23480-3 0  9991
2 47963  97.5457 197.5406 0017688 220.3202 139.6715 15.08079080 31342
